ADRAS-J                 
1 58992U 24034A   24260.43000248  .00009198  00000+0  82448-3 0  9996
2 58992  98.2218 237.7110 0045315 107.7988 252.8183 14.95230394 31490
